#dP2020 11  3  0  0  0.00000000      96 __u+U ITR00 FIT  IAC
## 2130 172800.00000000   900.00000000 59156 0.0000000000000
+  115   C06C07C08C09C10C11C12C13C14C16C19C20C21C22C23C24C25
+        C26C27C28C29C30C32C33C34C35C36C37C38C39C40C43C44C45
+        C46E01E02E03E04E05E07E08E09E11E12E13E14E15E18E19E21
+        E24E25E26E27E30E31E33E36G01G02G03G04G05G06G07G08G09
+        G10G11G12G13G15G16G17G18G19G20G21G22G23G24G25G26G27
+        G28G29G30G31G32J01J02J03R01R02R03R04R05R07R08R09R11
+        R12R13R14R15R16R17R18R19R20R21R22R23R24  0  0  0  0
++         7  8  8  6  8  7  7  7  6  7  8  8  7  8  7  7  5
++         7  7  9  8  8  6  6  9  8  7  6 10  8 12 12 11 10
++         8  7  7  6  6  5  5  6  7  7  6  7  6  7  7  6  6
++         7  8  7  8  6  6  7  5  7  7  6  5  6  6  6  6  5
++         6  5  6  6  8  6  5  5  7  7  5  5  5  5  5  6  6
++         6  5  5  7  6 10  8 11  0  7  6  7  7  7  8  7  8
++         7  9  5  7  6  7  6  7  5  8  8  8  7  0  0  0  0
%c M  cc GPS ccc cccc cccc cccc cccc ccccc ccccc ccccc ccccc
%c cc cc ccc ccc cccc cccc cccc cccc ccccc ccccc ccccc ccccc
%f  0.0000000  0.000000000  0.00000000000  0.000000000000000
%f  0.0000000  0.000000000  0.00000000000  0.000000000000000
%i    0    0    0    0      0      0      0      0         0
%i    0    0    0    0      0      0      0      0         0
/* INFORMATION & ANALYSIS CENTER (IAC)      ULTRA-RAPID DATA
/* S/V CLOCKS ARE ALIGNED TO GNSS TIME                      
/* G:C1WC2W R:C1PC2P E:C1XC5X C:C2IC6I J:C1CC2S             
/* PCV:IGS14_2118 OL/AL:FES2004  NONE     YN ORB:CoN CLK:CoN
*  2020 11 03 23  0  0.00000000
PC06 -25841.456504  27896.280738 -18276.694163     87.468157
PC07 -12357.922835  36210.885507 -16895.590149   -159.047227
PC08  -8875.338665  19670.689886  36333.674568   -665.212717
PC09 -10785.529527  28053.706315 -29479.782767    914.734153
PC10  -1584.031725  41678.693756  -4093.800459   -149.538137
PC11  13967.137313 -16102.190104 -17976.859499   -728.329064
PC12  26259.602602  -9199.793907  -2337.204912    590.507556
PC13   5113.728564  26984.530811  32168.677323    727.110113
PC14   9152.785925 -26021.537207  -4393.238964    177.531225
PC16 -22882.610777  28547.212496 -21044.481272   -604.491360
PC19  -2813.690100  27327.529106  -4849.030914    605.535567
PC20 -13431.014519  21317.630150  11974.018721   -878.856514
PC21  16506.018730  -2315.852585 -22377.092662   -713.070029
PC22   9720.537586  17607.661184 -19341.042117   -784.431534
PC23 -19529.189690 -19893.454126   1223.387420   -918.038662
PC24  12641.681332 -10261.690895  22664.613866   -720.742633
PC25  -5987.361933 -21507.939367  16728.384302   -814.405950
PC26  22514.794525   5536.327536  15552.631601    891.483620
PC27 -26929.661630   2676.765496  -6850.138045    426.833510
PC28 -16215.446600 -10034.507695 -20364.000935   -150.245298
PC29  -3266.493768  16979.774730  21899.413858    306.400899
PC30 -21564.786541  14439.347886  10278.436422    398.902270
PC32 -16499.380103   2372.294932  22383.969092   -892.932918
PC33   2724.362318 -27367.329171   4769.129343   -827.109862
PC34  21160.677402 -14631.920535 -10794.802528   -817.013953
PC35  16332.876270   9683.901313  20441.056745   -576.598642
PC36   5263.028494  21567.314571 -16880.644275   -850.623501
PC37 -22525.400930  -6711.506029 -15005.305184   -883.077943
PC38  -5249.573903  24048.884075  34258.527909 999999.999999
PC39 -16950.880086  30194.314992 -24152.798410 999999.999999
PC40  -7738.566216  40567.930109  -8016.616425 999999.999999
PC43   3757.496046 -17121.027792 -21711.748491 999999.999999
PC44  26787.526219  -3389.376654   6992.541553   -134.751092
PC45  19634.848815  19813.019502  -1162.279568 999999.999999
PC46 -11887.668014  10850.863750 -22782.722889 999999.999999
PE01  16227.986461  -3483.581314  24518.014938   -975.261237
PE02 -16174.613266   3622.299402 -24516.179954    173.805663
PE03 -22964.690550  12940.686434  13443.812595   -361.072743
PE04  16027.297825 -24486.382747   4444.870563   -640.585543
PE05 -16537.384300  -6359.190624  23705.637586   -332.378822
PE07    519.766952  21772.340746 -20043.570360   -457.260648
PE08 -15711.522793  24627.756261  -4737.870973   6096.919426
PE09   -647.839374 -21641.340913  20187.543927   5877.001038
PE11 -10198.600068 -16460.710389 -22392.791602   6729.384654
PE12  12775.425406 -13353.413115 -23117.775946   5523.872446
PE13   9921.930447  16386.095149  22574.130571    405.704296
PE14 -23949.829097  11704.076083  -4327.556405  -1213.184098
PE15 -12572.157757  13388.549857  23220.096078    845.415555
PE18  18234.963959 -22039.144427 -10532.237667  -1325.256012
PE19  22855.087337 -10997.787761 -15261.797097    119.523871
PE21  18034.156385  16915.778781  16281.180605   -630.075160
PE24  -8905.214995 -28135.899225   2128.738541   -564.301024
PE25 -17992.587043 -17068.906147 -16142.633448   -519.531382
PE26  26804.881113   9645.595447   8073.223498   2537.016902
PE27   9382.127869  28030.340235  -1640.149041    100.104803
PE30  -5324.863577  22181.928526 -18869.973816   3452.552786
PE31   4754.257863 -22605.807291  18522.447447   -475.407884
PE33  27674.772084  -2507.047294 -10197.488929   -463.143609
PE36 -26566.161145  -9751.633782  -8660.574933    485.705382
PG01 -20946.631893 -14725.162908  -7916.099774    810.794881
PG02   2144.145517  16474.329666  21375.303690   -538.065518
PG03 -12737.228010 -17782.301929  15053.624021   -344.035904
PG04 -14380.565297  -7771.648679  20945.285303   -151.882746
PG05   2136.722119  26191.708651   2941.605738    -25.012843
PG06 -13893.628341   9203.703986  20746.627103      0.607015
PG07 -25174.383806  -5180.387644  -7304.159994   -407.066782
PG08  -5459.826519 -14515.555927 -21516.658464    -53.822658
PG09 -21711.314096   3700.488163  14794.472260   -308.981931
PG10  12353.668398 -12067.793881 -20014.163170   -495.997068
PG11 -14137.419916 -13197.529134 -18524.108836   -118.577821
PG12  10130.754735  20606.905153  13241.672284     45.177114
PG13  -4789.631840  17915.460292 -19103.438413     61.300287
PG15   8382.152299  13999.036313 -21271.011526   -192.448230
PG16    188.054273 -26237.288556   1727.199317   -231.506692
PG17 -21228.294007  15852.550542   1987.680297    349.035932
PG18  24584.632513   3890.464827  -9355.847179    316.610754
PG19 -18669.511186  17173.512878   7453.205948    -83.039568
PG20  16294.518215    715.131223 -21068.988695    526.160408
PG21 -12486.423163 -16364.795367 -16250.863344     64.601770
PG22 -11161.381956 -22904.581645   7971.364160   -734.845447
PG23  15239.734267   -805.534263 -21769.703140     95.658211
PG24  19054.513672  15246.201786 -11158.720050      6.903456
PG25  15075.400669   8575.388559  19950.862055     16.105339
PG26   6385.665401 -21722.983269  13651.087832    306.029278
PG27   6575.884414 -19352.765007 -16914.399079     -5.718250
PG28 -12314.458589  13395.141838 -18829.855986    659.855805
PG29  20700.436582   -361.739072  16628.970626   -229.191766
PG30 -21372.675086   2847.508721 -15597.754469   -329.306942
PG31  12415.323003 -10607.162238  20969.644063    -79.171006
PG32  20529.239689 -16692.096702    942.512876    364.147346
PJ01 -31241.544048  25767.324628  16627.989484   -337.523809
PJ02 -18831.881238  23396.204645 -25183.326313     -6.202342
PJ03 -30511.965425  27678.553052  14154.843543     -2.673038
PR01      0.000000      0.000000      0.000000 999999.999999
PR02   1117.613600 -20299.701685  15397.282514    452.847468
PR03  -9382.653357  -5898.439008  23005.580567     24.941396
PR04 -14253.799188  11722.529130  17630.982505     60.299815
PR05 -11333.836546  22749.188144   2321.747268     60.465239
PR07   9599.426988   5373.568408 -22986.825849    -41.141722
PR08  14314.907138 -11697.011484 -17520.615496    -55.523847
PR09  11448.119538  21490.138066  -7466.776320      5.830645
PR11  13044.203258   -312.154686  21929.295699    -43.430751
PR12   1457.936065 -14694.944971  20824.488698    177.244742
PR13 -11447.079977 -21406.808855   7825.613334    -46.116825
PR14 -17499.719187 -15575.075179 -10091.339483     57.339922
PR15 -13365.859616   -763.041489 -21686.894540    106.876970
PR16   -552.374723  15448.785358 -20346.666475     -7.849702
PR17 -21098.486457  -4078.427286 -13694.025663    371.115949
PR18 -25108.148279   3729.053589   2760.048107     54.960074
PR19 -16432.273006   8957.469429  17327.897569   -118.204344
PR20   4324.974593   9966.353421  23085.619434   -425.728544
PR21  21779.147080   3612.430287  12813.437993   -163.649677
PR22  24815.168564  -4114.097926  -3968.891384    -80.185569
PR23   9100.859597 -10475.270339 -21410.428844    342.590323
PR24  -5274.986214 -10253.306440 -22731.171455     19.254727
EOF
